IRIDIUM 116             
1 43072U 17083C   25197.76795265  .00000018  00000+0 -67173-6 0  9995
2 43072  86.3962 102.2478 0001916  86.3590 273.7825 14.34217820396097
IRIDIUM 130             
1 43073U 17083D   25197.80600778  .00000005  00000+0 -54119-5 0  9996
2 43073  86.3969 102.4743 0001694  80.1464 279.9923 14.34217708396044
IRIDIUM 151             
1 43074U 17083E   25197.78063814 -.00000022  00000+0 -15015-4 0  9999
2 43074  86.3963 102.2924 0001880  88.5890 271.5522 14.34217436396063
IRIDIUM 134             
1 43075U 17083F   25197.81869355 -.00000036  00000+0 -19902-4 0  9992
2 43075  86.3965 102.2800 0001809  79.8190 280.3210 14.34217323396030
IRIDIUM 137             
1 43076U 17083G   25197.83137839  .00000050  00000+0  10770-4 0  9998
2 43076  86.3967 102.3609 0002014 101.8918 258.2504 14.34218068396109
IRIDIUM 141             
1 43077U 17083H   25197.82504041  .00000207  00000+0  66910-4 0  9992
2 43077  86.3962 102.2132 0002374  82.5897 277.5568 14.34219547396102
IRIDIUM 153             
1 43078U 17083J   25197.70744717  .00000016  00000+0 -15063-5 0  9999
2 43078  86.3935  70.7222 0002370  77.4079 282.7382 14.34217657397195
IRIDIUM 131             
1 43079U 17083K   25197.81235211 -.00000025  00000+0 -16122-4 0  9993
2 43079  86.3968 102.3821 0002228  86.0687 274.0764 14.34217319396037
